{
"type": "FeatureCollection",
"name": "sd-county-major-cities",
"crs": { "type": "name", "properties": { "name": "urn:ogc:def:crs:OGC:1.3:CRS84" } },
"features": [
{ "type": "Feature", "properties": { "SCALERANK": 8, "NATSCALE": 10, "LABELRANK": 1, "FEATURECLA": "Populated place", "NAME": "National City", "NAMEPAR": null, "NAMEALT": null, "NAMEASCII": "National City", "ADM0CAP": 0, "CAPIN": null, "WORLDCITY": 0, "MEGACITY": 0, "SOV0NAME": "United States", "SOV_A3": "USA", "ADM0NAME": "United States of America", "ADM0_A3": "USA", "ADM1NAME": "California", "ISO_A2": "US", "NOTE": null, "LATITUDE": 32.671945, "LONGITUDE": -117.098005, "POP_MAX": 150000, "POP_MIN": 58582, "POP_OTHER": 1000988, "RANK_MAX": 9, "RANK_MIN": 8, "MEGANAME": null, "LS_NAME": "National City", "MAX_POP10": 1057405, "MAX_POP20": 0, "MAX_POP50": 0, "MAX_POP300": 0, "MAX_POP310": 0, "MAX_NATSCA": 10, "MIN_AREAKM": 433, "MAX_AREAKM": 433, "MIN_AREAMI": 167, "MAX_AREAMI": 167, "MIN_PERKM": 167, "MAX_PERKM": 167, "MIN_PERMI": 104, "MAX_PERMI": 104, "MIN_BBXMIN": -117.176941, "MAX_BBXMIN": -117.176941, "MIN_BBXMAX": -116.858333, "MAX_BBXMAX": -116.858333, "MIN_BBYMIN": 32.581355, "MAX_BBYMIN": 32.581355, "MIN_BBYMAX": 32.873716, "MAX_BBYMAX": 32.873716, "MEAN_BBXC": -117.019564, "MEAN_BBYC": 32.724888, "TIMEZONE": "America/Los_Angeles", "UN_FID": 0, "POP1950": 0, "POP1955": 0, "POP1960": 0, "POP1965": 0, "POP1970": 0, "POP1975": 0, "POP1980": 0, "POP1985": 0, "POP1990": 0, "POP1995": 0, "POP2000": 0, "POP2005": 0, "POP2010": 0, "POP2015": 0, "POP2020": 0, "POP2025": 0, "POP2050": 0, "MIN_ZOOM": 7.0, "WIKIDATAID": "Q430316", "WOF_ID": 85922243, "CAPALT": 0, "NAME_EN": "National City", "NAME_DE": "National City", "NAME_ES": "National City", "NAME_FR": "National City", "NAME_PT": "National City", "NAME_RU": "Нашенал-Сити", "NAME_ZH": "纳雄耐尔城", "LABEL": null, "NAME_AR": "ناشنال سيتي", "NAME_BN": "ন্যাশনাল সিটি", "NAME_EL": "Νάσιοναλ Σίτυ", "NAME_HI": "नेशनल सिटी", "NAME_HU": "National City", "NAME_ID": "National City", "NAME_IT": "National City", "NAME_JA": "ナショナルシティ", "NAME_KO": "내셔널시티", "NAME_NL": "National City", "NAME_PL": "National City", "NAME_SV": "National City", "NAME_TR": "National City", "NAME_VI": "Thành phố National", "NE_ID": 1159123439, "NAME_FA": "نشنال سیتی", "NAME_HE": "נשיונל סיטי", "NAME_UK": "Нейшенал-Сіті", "NAME_UR": "نیشنل سٹی", "NAME_ZHT": "纳雄耐尔城", "GEONAMESID": 5376200, "FCLASS_ISO": null, "FCLASS_US": null, "FCLASS_FR": null, "FCLASS_RU": null, "FCLASS_ES": null, "FCLASS_CN": null, "FCLASS_TW": null, "FCLASS_IN": null, "FCLASS_NP": null, "FCLASS_PK": null, "FCLASS_DE": null, "FCLASS_GB": null, "FCLASS_BR": null, "FCLASS_IL": null, "FCLASS_PS": null, "FCLASS_SA": null, "FCLASS_EG": null, "FCLASS_MA": null, "FCLASS_PT": null, "FCLASS_AR": null, "FCLASS_JP": null, "FCLASS_KO": null, "FCLASS_VN": null, "FCLASS_TR": null, "FCLASS_ID": null, "FCLASS_PL": null, "FCLASS_GR": null, "FCLASS_IT": null, "FCLASS_NL": null, "FCLASS_SE": null, "FCLASS_BD": null, "FCLASS_UA": null, "FCLASS_TLC": null }, "geometry": { "type": "Point", "coordinates": [ -117.0980052, 32.671945 ] } },
{ "type": "Feature", "properties": { "SCALERANK": 7, "NATSCALE": 20, "LABELRANK": 1, "FEATURECLA": "Populated place", "NAME": "Oceanside", "NAMEPAR": null, "NAMEALT": null, "NAMEASCII": "Oceanside", "ADM0CAP": 0, "CAPIN": null, "WORLDCITY": 0, "MEGACITY": 0, "SOV0NAME": "United States", "SOV_A3": "USA", "ADM0NAME": "United States of America", "ADM0_A3": "USA", "ADM1NAME": "California", "ISO_A2": "US", "NOTE": null, "LATITUDE": 33.220465, "LONGITUDE": -117.334968, "POP_MAX": 609854, "POP_MIN": 183095, "POP_OTHER": 615442, "RANK_MAX": 11, "RANK_MIN": 9, "MEGANAME": null, "LS_NAME": "Oceanside", "MAX_POP10": 609854, "MAX_POP20": 609854, "MAX_POP50": 0, "MAX_POP300": 0, "MAX_POP310": 0, "MAX_NATSCA": 20, "MIN_AREAKM": 424, "MAX_AREAKM": 424, "MIN_AREAMI": 164, "MAX_AREAMI": 164, "MIN_PERKM": 259, "MAX_PERKM": 259, "MIN_PERMI": 161, "MAX_PERMI": 161, "MIN_BBXMIN": -117.408333, "MAX_BBXMIN": -117.408333, "MIN_BBXMAX": -117.016667, "MAX_BBXMAX": -117.016667, "MIN_BBYMIN": 33.010028, "MAX_BBYMIN": 33.010028, "MIN_BBYMAX": 33.291667, "MAX_BBYMAX": 33.291667, "MEAN_BBXC": -117.232474, "MEAN_BBYC": 33.153858, "TIMEZONE": "America/Los_Angeles", "UN_FID": 0, "POP1950": 0, "POP1955": 0, "POP1960": 0, "POP1965": 0, "POP1970": 0, "POP1975": 0, "POP1980": 0, "POP1985": 0, "POP1990": 0, "POP1995": 0, "POP2000": 0, "POP2005": 0, "POP2010": 0, "POP2015": 0, "POP2020": 0, "POP2025": 0, "POP2050": 0, "MIN_ZOOM": 6.7, "WIKIDATAID": "Q488924", "WOF_ID": 85922239, "CAPALT": 0, "NAME_EN": "Oceanside", "NAME_DE": "Oceanside", "NAME_ES": "Oceanside", "NAME_FR": "Oceanside", "NAME_PT": "Oceanside", "NAME_RU": "Ошенсайд", "NAME_ZH": "欧申赛德", "LABEL": null, "NAME_AR": "أوسيانسيدي", "NAME_BN": "ওসেনাসাইড", "NAME_EL": "Όσεανσαϊντ", "NAME_HI": "ओशनसाइड", "NAME_HU": "Oceanside", "NAME_ID": "Oceanside", "NAME_IT": "Oceanside", "NAME_JA": "オーシャンサイド", "NAME_KO": "오션사이드", "NAME_NL": "Oceanside", "NAME_PL": "Oceanside", "NAME_SV": "Oceanside", "NAME_TR": "Oceanside", "NAME_VI": "Oceanside", "NE_ID": 1159132659, "NAME_FA": "اوشن ساید", "NAME_HE": "אושנסייד", "NAME_UK": "Оушенсайд", "NAME_UR": "اوشنسائیڈ", "NAME_ZHT": "歐申賽德", "GEONAMESID": 5378771, "FCLASS_ISO": null, "FCLASS_US": null, "FCLASS_FR": null, "FCLASS_RU": null, "FCLASS_ES": null, "FCLASS_CN": null, "FCLASS_TW": null, "FCLASS_IN": null, "FCLASS_NP": null, "FCLASS_PK": null, "FCLASS_DE": null, "FCLASS_GB": null, "FCLASS_BR": null, "FCLASS_IL": null, "FCLASS_PS": null, "FCLASS_SA": null, "FCLASS_EG": null, "FCLASS_MA": null, "FCLASS_PT": null, "FCLASS_AR": null, "FCLASS_JP": null, "FCLASS_KO": null, "FCLASS_VN": null, "FCLASS_TR": null, "FCLASS_ID": null, "FCLASS_PL": null, "FCLASS_GR": null, "FCLASS_IT": null, "FCLASS_NL": null, "FCLASS_SE": null, "FCLASS_BD": null, "FCLASS_UA": null, "FCLASS_TLC": null }, "geometry": { "type": "Point", "coordinates": [ -117.345811234421518, 33.191499041848665 ] } },
{ "type": "Feature", "properties": { "SCALERANK": 2, "NATSCALE": 200, "LABELRANK": 1, "FEATURECLA": "Populated place", "NAME": "San Diego", "NAMEPAR": null, "NAMEALT": null, "NAMEASCII": "San Diego", "ADM0CAP": 0, "CAPIN": null, "WORLDCITY": 0, "MEGACITY": 1, "SOV0NAME": "United States", "SOV_A3": "USA", "ADM0NAME": "United States of America", "ADM0_A3": "USA", "ADM1NAME": "California", "ISO_A2": "US", "NOTE": null, "LATITUDE": 32.82197, "LONGITUDE": -117.181936, "POP_MAX": 2916000, "POP_MIN": 961141, "POP_OTHER": 988682, "RANK_MAX": 12, "RANK_MIN": 11, "MEGANAME": "San Diego", "LS_NAME": "San Diego", "MAX_POP10": 961141, "MAX_POP20": 1753747, "MAX_POP50": 2367540, "MAX_POP300": 2367540, "MAX_POP310": 0, "MAX_NATSCA": 100, "MIN_AREAKM": 504, "MAX_AREAKM": 1292, "MIN_AREAMI": 195, "MAX_AREAMI": 499, "MIN_PERKM": 282, "MAX_PERKM": 652, "MIN_PERMI": 175, "MAX_PERMI": 405, "MIN_BBXMIN": -117.408333, "MAX_BBXMIN": -117.283333, "MIN_BBXMAX": -116.991667, "MAX_BBXMAX": -116.858333, "MIN_BBYMIN": 32.661601, "MAX_BBYMIN": 32.691667, "MIN_BBYMAX": 33.058333, "MAX_BBYMAX": 33.291667, "MEAN_BBXC": -117.133598, "MEAN_BBYC": 32.900047, "TIMEZONE": "America/Los_Angeles", "UN_FID": 569, "POP1950": 440, "POP1955": 612, "POP1960": 844, "POP1965": 1010, "POP1970": 1209, "POP1975": 1442, "POP1980": 1718, "POP1985": 2017, "POP1990": 2356, "POP1995": 2514, "POP2000": 2683, "POP2005": 2854, "POP2010": 2916, "POP2015": 3002, "POP2020": 3126, "POP2025": 3231, "POP2050": 3315, "MIN_ZOOM": 4.0, "WIKIDATAID": "Q16552", "WOF_ID": 85922227, "CAPALT": 0, "NAME_EN": "San Diego", "NAME_DE": "San Diego", "NAME_ES": "San Diego", "NAME_FR": "San Diego", "NAME_PT": "San Diego", "NAME_RU": "Сан-Диего", "NAME_ZH": "圣迭戈", "LABEL": null, "NAME_AR": "سان دييغو", "NAME_BN": "স্যান ডিয়েগো", "NAME_EL": "Σαν Ντιέγκο", "NAME_HI": "सैन डिएगो", "NAME_HU": "San Diego", "NAME_ID": "San Diego", "NAME_IT": "San Diego", "NAME_JA": "サンディエゴ", "NAME_KO": "샌디에이고", "NAME_NL": "San Diego", "NAME_PL": "San Diego", "NAME_SV": "San Diego", "NAME_TR": "San Diego", "NAME_VI": "San Diego", "NE_ID": 1159151227, "NAME_FA": "سن دیگو", "NAME_HE": "סן דייגו", "NAME_UK": "Сан-Дієго", "NAME_UR": "سان ڈیگو", "NAME_ZHT": "聖地牙哥", "GEONAMESID": 5391811, "FCLASS_ISO": null, "FCLASS_US": null, "FCLASS_FR": null, "FCLASS_RU": null, "FCLASS_ES": null, "FCLASS_CN": null, "FCLASS_TW": null, "FCLASS_IN": null, "FCLASS_NP": null, "FCLASS_PK": null, "FCLASS_DE": null, "FCLASS_GB": null, "FCLASS_BR": null, "FCLASS_IL": null, "FCLASS_PS": null, "FCLASS_SA": null, "FCLASS_EG": null, "FCLASS_MA": null, "FCLASS_PT": null, "FCLASS_AR": null, "FCLASS_JP": null, "FCLASS_KO": null, "FCLASS_VN": null, "FCLASS_TR": null, "FCLASS_ID": null, "FCLASS_PL": null, "FCLASS_GR": null, "FCLASS_IT": null, "FCLASS_NL": null, "FCLASS_SE": null, "FCLASS_BD": null, "FCLASS_UA": null, "FCLASS_TLC": null }, "geometry": { "type": "Point", "coordinates": [ -117.150881454026234, 32.71891385421138 ] } }
]
}
